{
  "type": "FeatureCollection",
  "features": [
    {
      "type": "Feature",
      "properties": {
        "norad_id": 29869,
        "name": "FENGYUN 1C DEB",
        "group": "fengyun-1c-debris",
        "lat": 7.802233592157261,
        "lon": -85.51766711524661,
        "alt_km": 708.3944981280783,
        "timestamp": "2025-12-11T10:53:16.158558+00:00",
        "meta_object_name": "FENGYUN 1C DEB",
        "meta_object_id": "1999-025FP",
        "meta_epoch": "2025-12-10T18:16:37.680672",
        "meta_mean_motion": 14.36876512,
        "meta_eccentricity": 0.00877518,
        "meta_inclination": 98.8727,
        "meta_ra_of_asc_node": 274.9956,
        "meta_arg_of_pericenter": 16.8573,
        "meta_mean_anomaly": 13.1844,
        "meta_ephemeris_type": 0,
        "meta_classification_type": "U",
        "meta_norad_cat_id": 29869,
        "meta_element_set_no": 999,
        "meta_rev_at_epoch": 98792,
        "meta_bstar": 0.00075132282,
        "meta_mean_motion_dot": 2.274e-05,
        "meta_mean_motion_ddot": 0,
        "tle_line1": "1 29869U 99025FP  25344.76154723  .00002274  00000+0  75132-3 0  9997",
        "tle_line2": "2 29869  98.8727 274.9956 0087751  16.8573  13.1844 14.36876512987926"
      },
      "geometry": {
        "type": "Point",
        "coordinates": [
          -85.51766711524661,
          7.802233592157261
        ]
      }
    },
    {
      "type": "Feature",
      "properties": {
        "norad_id": 29870,
        "name": "FENGYUN 1C DEB",
        "group": "fengyun-1c-debris",
        "lat": 71.29361334379996,
        "lon": -69.66447414095603,
        "alt_km": 834.2112809850987,
        "timestamp": "2025-12-11T10:53:16.158568+00:00",
        "meta_object_name": "FENGYUN 1C DEB",
        "meta_object_id": "1999-025FQ",
        "meta_epoch": "2025-12-11T03:53:27.982752",
        "meta_mean_motion": 14.28979624,
        "meta_eccentricity": 0.0119771,
        "meta_inclination": 98.4598,
        "meta_ra_of_asc_node": 316.1269,
        "meta_arg_of_pericenter": 197.0643,
        "meta_mean_anomaly": 178.515,
        "meta_ephemeris_type": 0,
        "meta_classification_type": "U",
        "meta_norad_cat_id": 29870,
        "meta_element_set_no": 999,
        "meta_rev_at_epoch": 98571,
        "meta_bstar": 8.2665e-05,
        "meta_mean_motion_dot": 1.82e-06,
        "meta_mean_motion_ddot": 0,
        "tle_line1": "1 29870U 99025FQ  25345.16212943  .00000182  00000+0  82665-4 0  9999",
        "tle_line2": "2 29870  98.4598 316.1269 0119771 197.0643 178.5150 14.28979624985714"
      },
      "geometry": {
        "type": "Point",
        "coordinates": [
          -69.66447414095603,
          71.29361334379996
        ]
      }
    },
    {
      "type": "Feature",
      "properties": {
        "norad_id": 29871,
        "name": "FENGYUN 1C DEB",
        "group": "fengyun-1c-debris",
        "lat": -38.18028958836913,
        "lon": -54.34726424925726,
        "alt_km": 792.3018232054155,
        "timestamp": "2025-12-11T10:53:16.158579+00:00",
        "meta_object_name": "FENGYUN 1C DEB",
        "meta_object_id": "1999-025FR",
        "meta_epoch": "2025-12-11T02:48:22.288896",
        "meta_mean_motion": 14.4262182,
        "meta_eccentricity": 0.0058616,
        "meta_inclination": 98.9729,
        "meta_ra_of_asc_node": 298.1613,
        "meta_arg_of_pericenter": 112.2195,
        "meta_mean_anomaly": 261.6622,
        "meta_ephemeris_type": 0,
        "meta_classification_type": "U",
        "meta_norad_cat_id": 29871,
        "meta_element_set_no": 999,
        "meta_rev_at_epoch": 98678,
        "meta_bstar": 0.0013471,
        "meta_mean_motion_dot": 4.523e-05,
        "meta_mean_motion_ddot": 0,
        "tle_line1": "1 29871U 99025FR  25345.11692464  .00004523  00000+0  13471-2 0  9995",
        "tle_line2": "2 29871  98.9729 298.1613 0058616 112.2195 261.6622 14.42621820986783"
      },
      "geometry": {
        "type": "Point",
        "coordinates": [
          -54.34726424925726,
          -38.18028958836913
        ]
      }
    },
    {
      "type": "Feature",
      "properties": {
        "norad_id": 29872,
        "name": "FENGYUN 1C DEB",
        "group": "fengyun-1c-debris",
        "lat": 25.45944208594171,
        "lon": -174.53671528058638,
        "alt_km": 921.8786682452492,
        "timestamp": "2025-12-11T10:53:16.158590+00:00",
        "meta_object_name": "FENGYUN 1C DEB",
        "meta_object_id": "1999-025FS",
        "meta_epoch": "2025-12-11T00:08:55.807008",
        "meta_mean_motion": 14.38939629,
        "meta_eccentricity": 0.0235419,
        "meta_inclination": 98.3462,
        "meta_ra_of_asc_node": 1.0196,
        "meta_arg_of_pericenter": 318.8186,
        "meta_mean_anomaly": 39.5444,
        "meta_ephemeris_type": 0,
        "meta_classification_type": "U",
        "meta_norad_cat_id": 29872,
        "meta_element_set_no": 999,
        "meta_rev_at_epoch": 98567,
        "meta_bstar": 0.00094127,
        "meta_mean_motion_dot": 3.961e-05,
        "meta_mean_motion_ddot": 0,
        "tle_line1": "1 29872U 99025FS  25345.00620147  .00003961  00000+0  94127-3 0  9996",
        "tle_line2": "2 29872  98.3462   1.0196 0235419 318.8186  39.5444 14.38939629985676"
      },
      "geometry": {
        "type": "Point",
        "coordinates": [
          -174.53671528058638,
          25.45944208594171
        ]
      }
    },
    {
      "type": "Feature",
      "properties": {
        "norad_id": 29873,
        "name": "FENGYUN 1C DEB",
        "group": "fengyun-1c-debris",
        "lat": 59.86526728166658,
        "lon": -171.1667822531764,
        "alt_km": 946.5924823537189,
        "timestamp": "2025-12-11T10:53:16.158600+00:00",
        "meta_object_name": "FENGYUN 1C DEB",
        "meta_object_id": "1999-025FT",
        "meta_epoch": "2025-12-11T04:19:49.788768",
        "meta_mean_motion": 13.98145782,
        "meta_eccentricity": 0.0092498,
        "meta_inclination": 99.4421,
        "meta_ra_of_asc_node": 205.2108,
        "meta_arg_of_pericenter": 203.2543,
        "meta_mean_anomaly": 284.2432,
        "meta_ephemeris_type": 0,
        "meta_classification_type": "U",
        "meta_norad_cat_id": 29873,
        "meta_element_set_no": 999,
        "meta_rev_at_epoch": 96293,
        "meta_bstar": 0.0001741,
        "meta_mean_motion_dot": 2.1e-06,
        "meta_mean_motion_ddot": 0,
        "tle_line1": "1 29873U 99025FT  25345.18043737  .00000210  00000+0  17410-3 0  9994",
        "tle_line2": "2 29873  99.4421 205.2108 0092498 203.2543 284.2432 13.98145782962931"
      },
      "geometry": {
        "type": "Point",
        "coordinates": [
          -171.1667822531764,
          59.86526728166658
        ]
      }
    },
    {
      "type": "Feature",
      "properties": {
        "norad_id": 29874,
        "name": "FENGYUN 1C DEB",
        "group": "fengyun-1c-debris",
        "lat": 39.69394221322116,
        "lon": 69.41785858630149,
        "alt_km": 854.4583847656022,
        "timestamp": "2025-12-11T10:53:16.158611+00:00",
        "meta_object_name": "FENGYUN 1C DEB",
        "meta_object_id": "1999-025FU",
        "meta_epoch": "2025-12-11T04:16:59.242944",
        "meta_mean_motion": 14.2876912,
        "meta_eccentricity": 0.0105245,
        "meta_inclination": 98.3786,
        "meta_ra_of_asc_node": 242.1268,
        "meta_arg_of_pericenter": 355.3471,
        "meta_mean_anomaly": 168.9864,
        "meta_ephemeris_type": 0,
        "meta_classification_type": "U",
        "meta_norad_cat_id": 29874,
        "meta_element_set_no": 999,
        "meta_rev_at_epoch": 96825,
        "meta_bstar": 0.0046591,
        "meta_mean_motion_dot": 0.00012431,
        "meta_mean_motion_ddot": 0,
        "tle_line1": "1 29874U 99025FU  25345.17846346  .00012431  00000+0  46591-2 0  9990",
        "tle_line2": "2 29874  98.3786 242.1268 0105245 355.3471 168.9864 14.28769120968255"
      },
      "geometry": {
        "type": "Point",
        "coordinates": [
          69.41785858630149,
          39.69394221322116
        ]
      }
    },
    {
      "type": "Feature",
      "properties": {
        "norad_id": 29875,
        "name": "FENGYUN 1C DEB",
        "group": "fengyun-1c-debris",
        "lat": 1.420819477847874,
        "lon": 36.72191680682668,
        "alt_km": 786.3853260790311,
        "timestamp": "2025-12-11T10:53:16.158621+00:00",
        "meta_object_name": "FENGYUN 1C DEB",
        "meta_object_id": "1999-025FV",
        "meta_epoch": "2025-12-11T02:42:15.578784",
        "meta_mean_motion": 14.2487808,
        "meta_eccentricity": 0.0083204,
        "meta_inclination": 98.4054,
        "meta_ra_of_asc_node": 36.6055,
        "meta_arg_of_pericenter": 68.003,
        "meta_mean_anomaly": 346.3428,
        "meta_ephemeris_type": 0,
        "meta_classification_type": "U",
        "meta_norad_cat_id": 29875,
        "meta_element_set_no": 999,
        "meta_rev_at_epoch": 98299,
        "meta_bstar": 3.8151e-05,
        "meta_mean_motion_dot": 5.1e-07,
        "meta_mean_motion_ddot": 0,
        "tle_line1": "1 29875U 99025FV  25345.11268031  .00000051  00000+0  38151-4 0  9994",
        "tle_line2": "2 29875  98.4054  36.6055 0083204  68.0030 346.3428 14.24878080982991"
      },
      "geometry": {
        "type": "Point",
        "coordinates": [
          36.72191680682668,
          1.420819477847874
        ]
      }
    }
  ]
}